[
  {
    "name": "Afghanistan (â€«Ø§ÙØºØ§Ù†Ø³ØªØ§Ù†â€¬â€)",
    "iso2": "AF",
    "dialCode": "+93",
    "flag": "ğŸ‡¦ğŸ‡«"
  },
  {
    "name": "Ã…land Islands",
    "iso2": "AX",
    "dialCode": "+358",
    "flag": "ğŸ‡¦ğŸ‡½"
  },
  {
    "name": "Albania (ShqipÃ«ri)",
    "iso2": "AL",
    "dialCode": "+355",
    "flag": "ğŸ‡¦ğŸ‡±"
  },
  {
    "name": "Algeria (â€«Ø§Ù„Ø¬Ø²Ø§Ø¦Ø±â€¬â€)",
    "iso2": "DZ",
    "dialCode": "+213",
    "flag": "ğŸ‡©ğŸ‡¿"
  },
  {
    "name": "American Samoa",
    "iso2": "AS",
    "dialCode": "+1684",
    "flag": "ğŸ‡¦ğŸ‡¸"
  },
  {
    "name": "Andorra",
    "iso2": "AD",
    "dialCode": "+376",
    "flag": "ğŸ‡¦ğŸ‡©"
  },
  {
    "name": "Angola",
    "iso2": "AO",
    "dialCode": "+244",
    "flag": "ğŸ‡¦ğŸ‡´"
  },
  {
    "name": "Anguilla",
    "iso2": "AI",
    "dialCode": "+1264",
    "flag": "ğŸ‡¦ğŸ‡®"
  },
  {
    "name": "Antarctica",
    "iso2": "AQ",
    "dialCode": "+672",
    "flag": "ğŸ‡¦ğŸ‡¶"
  },
  {
    "name": "Antigua and Barbuda",
    "iso2": "AG",
    "dialCode": "+1268",
    "flag": "ğŸ‡¦ğŸ‡¬"
  },
  {
    "name": "Argentina",
    "iso2": "AR",
    "dialCode": "+54",
    "flag": "ğŸ‡¦ğŸ‡·"
  },
  {
    "name": "Armenia (Õ€Õ¡ÕµÕ¡Õ½Õ¿Õ¡Õ¶)",
    "iso2": "AM",
    "dialCode": "+374",
    "flag": "ğŸ‡¦ğŸ‡²"
  },
  {
    "name": "Aruba",
    "iso2": "AW",
    "dialCode": "+297",
    "flag": "ğŸ‡¦ğŸ‡¼"
  },
  {
    "name": "Australia",
    "iso2": "AU",
    "dialCode": "+61",
    "flag": "ğŸ‡¦ğŸ‡º"
  },
  {
    "name": "Austria (Ã–sterreich)",
    "iso2": "AT",
    "dialCode": "+43",
    "flag": "ğŸ‡¦ğŸ‡¹"
  },
  {
    "name": "Azerbaijan (AzÉ™rbaycan)",
    "iso2": "AZ",
    "dialCode": "+994",
    "flag": "ğŸ‡¦ğŸ‡¿"
  },
  {
    "name": "Bahamas",
    "iso2": "BS",
    "dialCode": "+1242",
    "flag": "ğŸ‡§ğŸ‡¸"
  },
  {
    "name": "Bahrain (â€«Ø§Ù„Ø¨Ø­Ø±ÙŠÙ†â€¬â€)",
    "iso2": "BH",
    "dialCode": "+973",
    "flag": "ğŸ‡§ğŸ‡­"
  },
  {
    "name": "Bangladesh (à¦¬à¦¾à¦‚à¦²à¦¾à¦¦à§‡à¦¶)",
    "iso2": "BD",
    "dialCode": "+880",
    "flag": "ğŸ‡§ğŸ‡©"
  },
  {
    "name": "Barbados",
    "iso2": "BB",
    "dialCode": "+1246",
    "flag": "ğŸ‡§ğŸ‡§"
  },
  {
    "name": "Belarus (Ğ‘ĞµĞ»Ğ°Ñ€ÑƒÑÑŒ)",
    "iso2": "BY",
    "dialCode": "+375",
    "flag": "ğŸ‡§ğŸ‡¾"
  },
  {
    "name": "Belgium (BelgiÃ«)",
    "iso2": "BE",
    "dialCode": "+32",
    "flag": "ğŸ‡§ğŸ‡ª"
  },
  {
    "name": "Belize",
    "iso2": "BZ",
    "dialCode": "+501",
    "flag": "ğŸ‡§ğŸ‡¿"
  },
  {
    "name": "Benin (BÃ©nin)",
    "iso2": "BJ",
    "dialCode": "+229",
    "flag": "ğŸ‡§ğŸ‡¯"
  },
  {
    "name": "Bermuda",
    "iso2": "BM",
    "dialCode": "+1441",
    "flag": "ğŸ‡§ğŸ‡²"
  },
  {
    "name": "Bhutan (à½ à½–à¾²à½´à½‚)",
    "iso2": "BT",
    "dialCode": "+975",
    "flag": "ğŸ‡§ğŸ‡¹"
  },
  {
    "name": "Bolivia",
    "iso2": "BO",
    "dialCode": "+591",
    "flag": "ğŸ‡§ğŸ‡´"
  },
  {
    "name": "Bosnia and Herzegovina (Ğ‘Ğ¾ÑĞ½Ğ° Ğ¸ Ğ¥ĞµÑ€Ñ†ĞµĞ³Ğ¾Ğ²Ğ¸Ğ½Ğ°)",
    "iso2": "BA",
    "dialCode": "+387",
    "flag": "ğŸ‡§ğŸ‡¦"
  },
  {
    "name": "Botswana",
    "iso2": "BW",
    "dialCode": "+267",
    "flag": "ğŸ‡§ğŸ‡¼"
  },
  {
    "name": "Bouvet Island",
    "iso2": "BV",
    "dialCode": "+47",
    "flag": "ğŸ‡§ğŸ‡»"
  },
  {
    "name": "Brazil (Brasil)",
    "iso2": "BR",
    "dialCode": "+55",
    "flag": "ğŸ‡§ğŸ‡·"
  },
  {
    "name": "British Indian Ocean Territory",
    "iso2": "IO",
    "dialCode": "+246",
    "flag": "ğŸ‡®ğŸ‡´"
  },
  {
    "name": "British Virgin Islands",
    "iso2": "VG",
    "dialCode": "+1284",
    "flag": "ğŸ‡»ğŸ‡¬"
  },
  {
    "name": "Brunei",
    "iso2": "BN",
    "dialCode": "+673",
    "flag": "ğŸ‡§ğŸ‡³"
  },
  {
    "name": "Bulgaria (Ğ‘ÑŠĞ»Ğ³Ğ°Ñ€Ğ¸Ñ)",
    "iso2": "BG",
    "dialCode": "+359",
    "flag": "ğŸ‡§ğŸ‡¬"
  },
  {
    "name": "Burkina Faso",
    "iso2": "BF",
    "dialCode": "+226",
    "flag": "ğŸ‡§ğŸ‡«"
  },
  {
    "name": "Burundi (Uburundi)",
    "iso2": "BI",
    "dialCode": "+257",
    "flag": "ğŸ‡§ğŸ‡®"
  },
  {
    "name": "Cambodia (á€á˜áŸ’á–á»á‡á¶)",
    "iso2": "KH",
    "dialCode": "+855",
    "flag": "ğŸ‡°ğŸ‡­"
  },
  {
    "name": "Cameroon (Cameroun)",
    "iso2": "CM",
    "dialCode": "+237",
    "flag": "ğŸ‡¨ğŸ‡²"
  },
  {
    "name": "Canada",
    "iso2": "CA",
    "dialCode": "+1",
    "flag": "ğŸ‡¨ğŸ‡¦"
  },
  {
    "name": "Cape Verde (Kabu Verdi)",
    "iso2": "CV",
    "dialCode": "+238",
    "flag": "ğŸ‡¨ğŸ‡»"
  },
  {
    "name": "Caribbean Netherlands",
    "iso2": "BQ",
    "dialCode": "+599",
    "flag": "ğŸ‡§ğŸ‡¶"
  },
  {
    "name": "Cayman Islands",
    "iso2": "KY",
    "dialCode": "+1345",
    "flag": "ğŸ‡°ğŸ‡¾"
  },
  {
    "name": "Central African Republic (RÃ©publique centrafricaine)",
    "iso2": "CF",
    "dialCode": "+236",
    "flag": "ğŸ‡¨ğŸ‡«"
  },
  {
    "name": "Chad (Tchad)",
    "iso2": "TD",
    "dialCode": "+235",
    "flag": "ğŸ‡¹ğŸ‡©"
  },
  {
    "name": "Chile",
    "iso2": "CL",
    "dialCode": "+56",
    "flag": "ğŸ‡¨ğŸ‡±"
  },
  {
    "name": "China (ä¸­å›½)",
    "iso2": "CN",
    "dialCode": "+86",
    "flag": "ğŸ‡¨ğŸ‡³"
  },
  {
    "name": "Christmas Island",
    "iso2": "CX",
    "dialCode": "+61",
    "flag": "ğŸ‡¨ğŸ‡½"
  },
  {
    "name": "Cocos (Keeling) Islands",
    "iso2": "CC",
    "dialCode": "+61",
    "flag": "ğŸ‡¨ğŸ‡¨"
  },
  {
    "name": "Colombia",
    "iso2": "CO",
    "dialCode": "+57",
    "flag": "ğŸ‡¨ğŸ‡´"
  },
  {
    "name": "Comoros (â€«Ø¬Ø²Ø± Ø§Ù„Ù‚Ù…Ø±â€¬â€)",
    "iso2": "KM",
    "dialCode": "+269",
    "flag": "ğŸ‡°ğŸ‡²"
  },
  {
    "name": "Congo (DRC) (Jamhuri ya Kidemokrasia ya Kongo)",
    "iso2": "CD",
    "dialCode": "+243",
    "flag": "ğŸ‡¨ğŸ‡©"
  },
  {
    "name": "Congo (Republic) (Congo-Brazzaville)",
    "iso2": "CG",
    "dialCode": "+242",
    "flag": "ğŸ‡¨ğŸ‡¬"
  },
  {
    "name": "Cook Islands",
    "iso2": "CK",
    "dialCode": "+682",
    "flag": "ğŸ‡¨ğŸ‡°"
  },
  {
    "name": "Costa Rica",
    "iso2": "CR",
    "dialCode": "+506",
    "flag": "ğŸ‡¨ğŸ‡·"
  },
  {
    "name": "CÃ´te dâ€™Ivoire",
    "iso2": "CI",
    "dialCode": "+225",
    "flag": "ğŸ‡¨ğŸ‡®"
  },
  {
    "name": "Croatia (Hrvatska)",
    "iso2": "HR",
    "dialCode": "+385",
    "flag": "ğŸ‡­ğŸ‡·"
  },
  {
    "name": "Cuba",
    "iso2": "CU",
    "dialCode": "+53",
    "flag": "ğŸ‡¨ğŸ‡º"
  },
  {
    "name": "CuraÃ§ao",
    "iso2": "CW",
    "dialCode": "+599",
    "flag": "ğŸ‡¨ğŸ‡¼"
  },
  {
    "name": "Cyprus (ÎšÏÏ€ÏÎ¿Ï‚)",
    "iso2": "CY",
    "dialCode": "+357",
    "flag": "ğŸ‡¨ğŸ‡¾"
  },
  {
    "name": "Czech Republic (ÄŒeskÃ¡ republika)",
    "iso2": "CZ",
    "dialCode": "+420",
    "flag": "ğŸ‡¨ğŸ‡¿"
  },
  {
    "name": "Denmark (Danmark)",
    "iso2": "DK",
    "dialCode": "+45",
    "flag": "ğŸ‡©ğŸ‡°"
  },
  {
    "name": "Djibouti",
    "iso2": "DJ",
    "dialCode": "+253",
    "flag": "ğŸ‡©ğŸ‡¯"
  },
  {
    "name": "Dominica",
    "iso2": "DM",
    "dialCode": "+1767",
    "flag": "ğŸ‡©ğŸ‡²"
  },
  {
    "name": "Dominican Republic (RepÃºblica Dominicana)",
    "iso2": "DO",
    "dialCode": "+1",
    "flag": "ğŸ‡©ğŸ‡´"
  },
  {
    "name": "Ecuador",
    "iso2": "EC",
    "dialCode": "+593",
    "flag": "ğŸ‡ªğŸ‡¨"
  },
  {
    "name": "Egypt (â€«Ù…ØµØ±â€¬â€)",
    "iso2": "EG",
    "dialCode": "+20",
    "flag": "ğŸ‡ªğŸ‡¬"
  },
  {
    "name": "El Salvador",
    "iso2": "SV",
    "dialCode": "+503",
    "flag": "ğŸ‡¸ğŸ‡»"
  },
  {
    "name": "Equatorial Guinea (Guinea Ecuatorial)",
    "iso2": "GQ",
    "dialCode": "+240",
    "flag": "ğŸ‡¬ğŸ‡¶"
  },
  {
    "name": "Eritrea",
    "iso2": "ER",
    "dialCode": "+291",
    "flag": "ğŸ‡ªğŸ‡·"
  },
  {
    "name": "Estonia (Eesti)",
    "iso2": "EE",
    "dialCode": "+372",
    "flag": "ğŸ‡ªğŸ‡ª"
  },
  {
    "name": "Ethiopia",
    "iso2": "ET",
    "dialCode": "+251",
    "flag": "ğŸ‡ªğŸ‡¹"
  },
  {
    "name": "Falkland Islands (Islas Malvinas)",
    "iso2": "FK",
    "dialCode": "+500",
    "flag": "ğŸ‡«ğŸ‡°"
  },
  {
    "name": "Faroe Islands (FÃ¸royar)",
    "iso2": "FO",
    "dialCode": "+298",
    "flag": "ğŸ‡«ğŸ‡´"
  },
  {
    "name": "Fiji",
    "iso2": "FJ",
    "dialCode": "+679",
    "flag": "ğŸ‡«ğŸ‡¯"
  },
  {
    "name": "Finland (Suomi)",
    "iso2": "FI",
    "dialCode": "+358",
    "flag": "ğŸ‡«ğŸ‡®"
  },
  {
    "name": "France",
    "iso2": "FR",
    "dialCode": "+33",
    "flag": "ğŸ‡«ğŸ‡·"
  },
  {
    "name": "French Guiana (Guyane franÃ§aise)",
    "iso2": "GF",
    "dialCode": "+594",
    "flag": "ğŸ‡¬ğŸ‡«"
  },
  {
    "name": "French Polynesia (PolynÃ©sie franÃ§aise)",
    "iso2": "PF",
    "dialCode": "+689",
    "flag": "ğŸ‡µğŸ‡«"
  },
  {
    "name": "French Southern and Antarctic Lands",
    "iso2": "TF",
    "dialCode": "+262",
    "flag": "ğŸ‡¹ğŸ‡«"
  },
  {
    "name": "Gabon",
    "iso2": "GA",
    "dialCode": "+241",
    "flag": "ğŸ‡¬ğŸ‡¦"
  },
  {
    "name": "Gambia",
    "iso2": "GM",
    "dialCode": "+220",
    "flag": "ğŸ‡¬ğŸ‡²"
  },
  {
    "name": "Georgia (áƒ¡áƒáƒ¥áƒáƒ áƒ—áƒ•áƒ”áƒšáƒ)",
    "iso2": "GE",
    "dialCode": "+995",
    "flag": "ğŸ‡¬ğŸ‡ª"
  },
  {
    "name": "Germany (Deutschland)",
    "iso2": "DE",
    "dialCode": "+49",
    "flag": "ğŸ‡©ğŸ‡ª"
  },
  {
    "name": "Ghana (Gaana)",
    "iso2": "GH",
    "dialCode": "+233",
    "flag": "ğŸ‡¬ğŸ‡­"
  },
  {
    "name": "Gibraltar",
    "iso2": "GI",
    "dialCode": "+350",
    "flag": "ğŸ‡¬ğŸ‡®"
  },
  {
    "name": "Greece (Î•Î»Î»Î¬Î´Î±)",
    "iso2": "GR",
    "dialCode": "+30",
    "flag": "ğŸ‡¬ğŸ‡·"
  },
  {
    "name": "Greenland (Kalaallit Nunaat)",
    "iso2": "GL",
    "dialCode": "+299",
    "flag": "ğŸ‡¬ğŸ‡±"
  },
  {
    "name": "Grenada",
    "iso2": "GD",
    "dialCode": "+1473",
    "flag": "ğŸ‡¬ğŸ‡©"
  },
  {
    "name": "Guadeloupe",
    "iso2": "GP",
    "dialCode": "+590",
    "flag": "ğŸ‡¬ğŸ‡µ"
  },
  {
    "name": "Guam",
    "iso2": "GU",
    "dialCode": "+1671",
    "flag": "ğŸ‡¬ğŸ‡º"
  },
  {
    "name": "Guatemala",
    "iso2": "GT",
    "dialCode": "+502",
    "flag": "ğŸ‡¬ğŸ‡¹"
  },
  {
    "name": "Guernsey",
    "iso2": "GG",
    "dialCode": "+44",
    "flag": "ğŸ‡¬ğŸ‡¬"
  },
  {
    "name": "Guinea (GuinÃ©e)",
    "iso2": "GN",
    "dialCode": "+224",
    "flag": "ğŸ‡¬ğŸ‡³"
  },
  {
    "name": "Guinea-Bissau (GuinÃ© Bissau)",
    "iso2": "GW",
    "dialCode": "+245",
    "flag": "ğŸ‡¬ğŸ‡¼"
  },
  {
    "name": "Guyana",
    "iso2": "GY",
    "dialCode": "+592",
    "flag": "ğŸ‡¬ğŸ‡¾"
  },
  {
    "name": "Haiti",
    "iso2": "HT",
    "dialCode": "+509",
    "flag": "ğŸ‡­ğŸ‡¹"
  },
  {
    "name": "Heard Island and McDonald Islands",
    "iso2": "HM",
    "dialCode": "+672",
    "flag": "ğŸ‡­ğŸ‡²"
  },
  {
    "name": "Honduras",
    "iso2": "HN",
    "dialCode": "+504",
    "flag": "ğŸ‡­ğŸ‡³"
  },
  {
    "name": "Hong Kong (é¦™æ¸¯)",
    "iso2": "HK",
    "dialCode": "+852",
    "flag": "ğŸ‡­ğŸ‡°"
  },
  {
    "name": "Hungary (MagyarorszÃ¡g)",
    "iso2": "HU",
    "dialCode": "+36",
    "flag": "ğŸ‡­ğŸ‡º"
  },
  {
    "name": "Iceland (Ãsland)",
    "iso2": "IS",
    "dialCode": "+354",
    "flag": "ğŸ‡®ğŸ‡¸"
  },
  {
    "name": "India (à¤­à¤¾à¤°à¤¤)",
    "iso2": "IN",
    "dialCode": "+91",
    "flag": "ğŸ‡®ğŸ‡³"
  },
  {
    "name": "Indonesia",
    "iso2": "ID",
    "dialCode": "+62",
    "flag": "ğŸ‡®ğŸ‡©"
  },
  {
    "name": "Iran (â€«Ø§ÛŒØ±Ø§Ù†â€¬â€)",
    "iso2": "IR",
    "dialCode": "+98",
    "flag": "ğŸ‡®ğŸ‡·"
  },
  {
    "name": "Iraq (â€«Ø§Ù„Ø¹Ø±Ø§Ù‚â€¬â€)",
    "iso2": "IQ",
    "dialCode": "+964",
    "flag": "ğŸ‡®ğŸ‡¶"
  },
  {
    "name": "Ireland",
    "iso2": "IE",
    "dialCode": "+353",
    "flag": "ğŸ‡®ğŸ‡ª"
  },
  {
    "name": "Isle of Man",
    "iso2": "IM",
    "dialCode": "+44",
    "flag": "ğŸ‡®ğŸ‡²"
  },
  {
    "name": "Israel (â€«×™×©×¨××œâ€¬â€)",
    "iso2": "IL",
    "dialCode": "+972",
    "flag": "ğŸ‡®ğŸ‡±"
  },
  {
    "name": "Italy (Italia)",
    "iso2": "IT",
    "dialCode": "+39",
    "flag": "ğŸ‡®ğŸ‡¹"
  },
  {
    "name": "Jamaica",
    "iso2": "JM",
    "dialCode": "+1876",
    "flag": "ğŸ‡¯ğŸ‡²"
  },
  {
    "name": "Japan (æ—¥æœ¬)",
    "iso2": "JP",
    "dialCode": "+81",
    "flag": "ğŸ‡¯ğŸ‡µ"
  },
  {
    "name": "Jersey",
    "iso2": "JE",
    "dialCode": "+44",
    "flag": "ğŸ‡¯ğŸ‡ª"
  },
  {
    "name": "Jordan (â€«Ø§Ù„Ø£Ø±Ø¯Ù†â€¬â€)",
    "iso2": "JO",
    "dialCode": "+962",
    "flag": "ğŸ‡¯ğŸ‡´"
  },
  {
    "name": "Kazakhstan (ĞšĞ°Ğ·Ğ°Ñ…ÑÑ‚Ğ°Ğ½)",
    "iso2": "KZ",
    "dialCode": "+7",
    "flag": "ğŸ‡°ğŸ‡¿"
  },
  {
    "name": "Kenya",
    "iso2": "KE",
    "dialCode": "+254",
    "flag": "ğŸ‡°ğŸ‡ª"
  },
  {
    "name": "Kiribati",
    "iso2": "KI",
    "dialCode": "+686",
    "flag": "ğŸ‡°ğŸ‡®"
  },
  {
    "name": "Kosovo",
    "iso2": "XK",
    "dialCode": "+383",
    "flag": "ğŸ‡½ğŸ‡°"
  },
  {
    "name": "Kuwait (â€«Ø§Ù„ÙƒÙˆÙŠØªâ€¬â€)",
    "iso2": "KW",
    "dialCode": "+965",
    "flag": "ğŸ‡°ğŸ‡¼"
  },
  {
    "name": "Kyrgyzstan (ĞšÑ‹Ñ€Ğ³Ñ‹Ğ·ÑÑ‚Ğ°Ğ½)",
    "iso2": "KG",
    "dialCode": "+996",
    "flag": "ğŸ‡°ğŸ‡¬"
  },
  {
    "name": "Laos (àº¥àº²àº§)",
    "iso2": "LA",
    "dialCode": "+856",
    "flag": "ğŸ‡±ğŸ‡¦"
  },
  {
    "name": "Latvia (Latvija)",
    "iso2": "LV",
    "dialCode": "+371",
    "flag": "ğŸ‡±ğŸ‡»"
  },
  {
    "name": "Lebanon (â€«Ù„Ø¨Ù†Ø§Ù†â€¬â€)",
    "iso2": "LB",
    "dialCode": "+961",
    "flag": "ğŸ‡±ğŸ‡§"
  },
  {
    "name": "Lesotho",
    "iso2": "LS",
    "dialCode": "+266",
    "flag": "ğŸ‡±ğŸ‡¸"
  },
  {
    "name": "Liberia",
    "iso2": "LR",
    "dialCode": "+231",
    "flag": "ğŸ‡±ğŸ‡·"
  },
  {
    "name": "Libya (â€«Ù„ÙŠØ¨ÙŠØ§â€¬â€)",
    "iso2": "LY",
    "dialCode": "+218",
    "flag": "ğŸ‡±ğŸ‡¾"
  },
  {
    "name": "Liechtenstein",
    "iso2": "LI",
    "dialCode": "+423",
    "flag": "ğŸ‡±ğŸ‡®"
  },
  {
    "name": "Lithuania (Lietuva)",
    "iso2": "LT",
    "dialCode": "+370",
    "flag": "ğŸ‡±ğŸ‡¹"
  },
  {
    "name": "Luxembourg",
    "iso2": "LU",
    "dialCode": "+352",
    "flag": "ğŸ‡±ğŸ‡º"
  },
  {
    "name": "Macau (æ¾³é–€)",
    "iso2": "MO",
    "dialCode": "+853",
    "flag": "ğŸ‡²ğŸ‡´"
  },
  {
    "name": "Macedonia (FYROM) (ĞœĞ°ĞºĞµĞ´Ğ¾Ğ½Ğ¸Ñ˜Ğ°)",
    "iso2": "MK",
    "dialCode": "+389",
    "flag": "ğŸ‡²ğŸ‡°"
  },
  {
    "name": "Madagascar (Madagasikara)",
    "iso2": "MG",
    "dialCode": "+261",
    "flag": "ğŸ‡²ğŸ‡¬"
  },
  {
    "name": "Malawi",
    "iso2": "MW",
    "dialCode": "+265",
    "flag": "ğŸ‡²ğŸ‡¼"
  },
  {
    "name": "Malaysia",
    "iso2": "MY",
    "dialCode": "+60",
    "flag": "ğŸ‡²ğŸ‡¾"
  },
  {
    "name": "Maldives",
    "iso2": "MV",
    "dialCode": "+960",
    "flag": "ğŸ‡²ğŸ‡»"
  },
  {
    "name": "Mali",
    "iso2": "ML",
    "dialCode": "+223",
    "flag": "ğŸ‡²ğŸ‡±"
  },
  {
    "name": "Malta",
    "iso2": "MT",
    "dialCode": "+356",
    "flag": "ğŸ‡²ğŸ‡¹"
  },
  {
    "name": "Marshall Islands",
    "iso2": "MH",
    "dialCode": "+692",
    "flag": "ğŸ‡²ğŸ‡­"
  },
  {
    "name": "Martinique",
    "iso2": "MQ",
    "dialCode": "+596",
    "flag": "ğŸ‡²ğŸ‡¶"
  },
  {
    "name": "Mauritania (â€«Ù…ÙˆØ±ÙŠØªØ§Ù†ÙŠØ§â€¬â€)",
    "iso2": "MR",
    "dialCode": "+222",
    "flag": "ğŸ‡²ğŸ‡·"
  },
  {
    "name": "Mauritius (Moris)",
    "iso2": "MU",
    "dialCode": "+230",
    "flag": "ğŸ‡²ğŸ‡º"
  },
  {
    "name": "Mayotte",
    "iso2": "YT",
    "dialCode": "+262",
    "flag": "ğŸ‡¾ğŸ‡¹"
  },
  {
    "name": "Mexico (MÃ©xico)",
    "iso2": "MX",
    "dialCode": "+52",
    "flag": "ğŸ‡²ğŸ‡½"
  },
  {
    "name": "Micronesia",
    "iso2": "FM",
    "dialCode": "+691",
    "flag": "ğŸ‡«ğŸ‡²"
  },
  {
    "name": "Moldova (Republica Moldova)",
    "iso2": "MD",
    "dialCode": "+373",
    "flag": "ğŸ‡²ğŸ‡©"
  },
  {
    "name": "Monaco",
    "iso2": "MC",
    "dialCode": "+377",
    "flag": "ğŸ‡²ğŸ‡¨"
  },
  {
    "name": "Mongolia (ĞœĞ¾Ğ½Ğ³Ğ¾Ğ»)",
    "iso2": "MN",
    "dialCode": "+976",
    "flag": "ğŸ‡²ğŸ‡³"
  },
  {
    "name": "Montenegro (Crna Gora)",
    "iso2": "ME",
    "dialCode": "+382",
    "flag": "ğŸ‡²ğŸ‡ª"
  },
  {
    "name": "Montserrat",
    "iso2": "MS",
    "dialCode": "+1664",
    "flag": "ğŸ‡²ğŸ‡¸"
  },
  {
    "name": "Morocco (â€«Ø§Ù„Ù…ØºØ±Ø¨â€¬â€)",
    "iso2": "MA",
    "dialCode": "+212",
    "flag": "ğŸ‡²ğŸ‡¦"
  },
  {
    "name": "Mozambique (MoÃ§ambique)",
    "iso2": "MZ",
    "dialCode": "+258",
    "flag": "ğŸ‡²ğŸ‡¿"
  },
  {
    "name": "Myanmar (Burma) (á€™á€¼á€”á€ºá€™á€¬)",
    "iso2": "MM",
    "dialCode": "+95",
    "flag": "ğŸ‡²ğŸ‡²"
  },
  {
    "name": "Namibia (NamibiÃ«)",
    "iso2": "NA",
    "dialCode": "+264",
    "flag": "ğŸ‡³ğŸ‡¦"
  },
  {
    "name": "Nauru",
    "iso2": "NR",
    "dialCode": "+674",
    "flag": "ğŸ‡³ğŸ‡·"
  },
  {
    "name": "Nepal (à¤¨à¥‡à¤ªà¤¾à¤²)",
    "iso2": "NP",
    "dialCode": "+977",
    "flag": "ğŸ‡³ğŸ‡µ"
  },
  {
    "name": "Netherlands (Nederland)",
    "iso2": "NL",
    "dialCode": "+31",
    "flag": "ğŸ‡³ğŸ‡±"
  },
  {
    "name": "New Caledonia (Nouvelle-CalÃ©donie)",
    "iso2": "NC",
    "dialCode": "+687",
    "flag": "ğŸ‡³ğŸ‡¨"
  },
  {
    "name": "New Zealand",
    "iso2": "NZ",
    "dialCode": "+64",
    "flag": "ğŸ‡³ğŸ‡¿"
  },
  {
    "name": "Nicaragua",
    "iso2": "NI",
    "dialCode": "+505",
    "flag": "ğŸ‡³ğŸ‡®"
  },
  {
    "name": "Niger (Nijar)",
    "iso2": "NE",
    "dialCode": "+227",
    "flag": "ğŸ‡³ğŸ‡ª"
  },
  {
    "name": "Nigeria",
    "iso2": "NG",
    "dialCode": "+234",
    "flag": "ğŸ‡³ğŸ‡¬"
  },
  {
    "name": "Niue",
    "iso2": "NU",
    "dialCode": "+683",
    "flag": "ğŸ‡³ğŸ‡º"
  },
  {
    "name": "Norfolk Island",
    "iso2": "NF",
    "dialCode": "+672",
    "flag": "ğŸ‡³ğŸ‡«"
  },
  {
    "name": "North Korea (ì¡°ì„  ë¯¼ì£¼ì£¼ì˜ ì¸ë¯¼ ê³µí™”êµ­)",
    "iso2": "KP",
    "dialCode": "+850",
    "flag": "ğŸ‡°ğŸ‡µ"
  },
  {
    "name": "Northern Mariana Islands",
    "iso2": "MP",
    "dialCode": "+1670",
    "flag": "ğŸ‡²ğŸ‡µ"
  },
  {
    "name": "Norway (Norge)",
    "iso2": "NO",
    "dialCode": "+47",
    "flag": "ğŸ‡³ğŸ‡´"
  },
  {
    "name": "Oman (â€«Ø¹ÙÙ…Ø§Ù†â€¬â€)",
    "iso2": "OM",
    "dialCode": "+968",
    "flag": "ğŸ‡´ğŸ‡²"
  },
  {
    "name": "Pakistan (â€«Ù¾Ø§Ú©Ø³ØªØ§Ù†â€¬â€)",
    "iso2": "PK",
    "dialCode": "+92",
    "flag": "ğŸ‡µğŸ‡°"
  },
  {
    "name": "Palau",
    "iso2": "PW",
    "dialCode": "+680",
    "flag": "ğŸ‡µğŸ‡¼"
  },
  {
    "name": "Palestine (â€«ÙÙ„Ø³Ø·ÙŠÙ†â€¬â€)",
    "iso2": "PS",
    "dialCode": "+970",
    "flag": "ğŸ‡µğŸ‡¸"
  },
  {
    "name": "Panama (PanamÃ¡)",
    "iso2": "PA",
    "dialCode": "+507",
    "flag": "ğŸ‡µğŸ‡¦"
  },
  {
    "name": "Papua New Guinea",
    "iso2": "PG",
    "dialCode": "+675",
    "flag": "ğŸ‡µğŸ‡¬"
  },
  {
    "name": "Paraguay",
    "iso2": "PY",
    "dialCode": "+595",
    "flag": "ğŸ‡µğŸ‡¾"
  },
  {
    "name": "Peru (PerÃº)",
    "iso2": "PE",
    "dialCode": "+51",
    "flag": "ğŸ‡µğŸ‡ª"
  },
  {
    "name": "Philippines",
    "iso2": "PH",
    "dialCode": "+63",
    "flag": "ğŸ‡µğŸ‡­"
  },
  {
    "name": "Pitcairn Islands",
    "iso2": "PN",
    "dialCode": "+64",
    "flag": "ğŸ‡µğŸ‡³"
  },
  {
    "name": "Poland (Polska)",
    "iso2": "PL",
    "dialCode": "+48",
    "flag": "ğŸ‡µğŸ‡±"
  },
  {
    "name": "Portugal",
    "iso2": "PT",
    "dialCode": "+351",
    "flag": "ğŸ‡µğŸ‡¹"
  },
  {
    "name": "Puerto Rico",
    "iso2": "PR",
    "dialCode": "+1",
    "flag": "ğŸ‡µğŸ‡·"
  },
  {
    "name": "Qatar (â€«Ù‚Ø·Ø±â€¬â€)",
    "iso2": "QA",
    "dialCode": "+974",
    "flag": "ğŸ‡¶ğŸ‡¦"
  },
  {
    "name": "RÃ©union (La RÃ©union)",
    "iso2": "RE",
    "dialCode": "+262",
    "flag": "ğŸ‡·ğŸ‡ª"
  },
  {
    "name": "Romania (RomÃ¢nia)",
    "iso2": "RO",
    "dialCode": "+40",
    "flag": "ğŸ‡·ğŸ‡´"
  },
  {
    "name": "Russia (Ğ Ğ¾ÑÑĞ¸Ñ)",
    "iso2": "RU",
    "dialCode": "+7",
    "flag": "ğŸ‡·ğŸ‡º"
  },
  {
    "name": "Rwanda",
    "iso2": "RW",
    "dialCode": "+250",
    "flag": "ğŸ‡·ğŸ‡¼"
  },
  {
    "name": "Saint BarthÃ©lemy (Saint-BarthÃ©lemy)",
    "iso2": "BL",
    "dialCode": "+590",
    "flag": "ğŸ‡§ğŸ‡±"
  },
  {
    "name": "Saint Helena",
    "iso2": "SH",
    "dialCode": "+290",
    "flag": "ğŸ‡¸ğŸ‡­"
  },
  {
    "name": "Saint Kitts and Nevis",
    "iso2": "KN",
    "dialCode": "+1869",
    "flag": "ğŸ‡°ğŸ‡³"
  },
  {
    "name": "Saint Lucia",
    "iso2": "LC",
    "dialCode": "+1758",
    "flag": "ğŸ‡±ğŸ‡¨"
  },
  {
    "name": "Saint Martin (Saint-Martin (partie franÃ§aise))",
    "iso2": "MF",
    "dialCode": "+590",
    "flag": "ğŸ‡²ğŸ‡«"
  },
  {
    "name": "Saint Pierre and Miquelon (Saint-Pierre-et-Miquelon)",
    "iso2": "PM",
    "dialCode": "+508",
    "flag": "ğŸ‡µğŸ‡²"
  },
  {
    "name": "Saint Vincent and the Grenadines",
    "iso2": "VC",
    "dialCode": "+1784",
    "flag": "ğŸ‡»ğŸ‡¨"
  },
  {
    "name": "Samoa",
    "iso2": "WS",
    "dialCode": "+685",
    "flag": "ğŸ‡¼ğŸ‡¸"
  },
  {
    "name": "San Marino",
    "iso2": "SM",
    "dialCode": "+378",
    "flag": "ğŸ‡¸ğŸ‡²"
  },
  {
    "name": "SÃ£o TomÃ© and PrÃ­ncipe (SÃ£o TomÃ© e PrÃ­ncipe)",
    "iso2": "ST",
    "dialCode": "+239",
    "flag": "ğŸ‡¸ğŸ‡¹"
  },
  {
    "name": "Saudi Arabia (â€«Ø§Ù„Ù…Ù…Ù„ÙƒØ© Ø§Ù„Ø¹Ø±Ø¨ÙŠØ© Ø§Ù„Ø³Ø¹ÙˆØ¯ÙŠØ©â€¬â€)",
    "iso2": "SA",
    "dialCode": "+966",
    "flag": "ğŸ‡¸ğŸ‡¦"
  },
  {
    "name": "Senegal (SÃ©nÃ©gal)",
    "iso2": "SN",
    "dialCode": "+221",
    "flag": "ğŸ‡¸ğŸ‡³"
  },
  {
    "name": "Serbia (Ğ¡Ñ€Ğ±Ğ¸Ñ˜Ğ°)",
    "iso2": "RS",
    "dialCode": "+381",
    "flag": "ğŸ‡·ğŸ‡¸"
  },
  {
    "name": "Seychelles",
    "iso2": "SC",
    "dialCode": "+248",
    "flag": "ğŸ‡¸ğŸ‡¨"
  },
  {
    "name": "Sierra Leone",
    "iso2": "SL",
    "dialCode": "+232",
    "flag": "ğŸ‡¸ğŸ‡±"
  },
  {
    "name": "Singapore",
    "iso2": "SG",
    "dialCode": "+65",
    "flag": "ğŸ‡¸ğŸ‡¬"
  },
  {
    "name": "Sint Maarten",
    "iso2": "SX",
    "dialCode": "+1721",
    "flag": "ğŸ‡¸ğŸ‡½"
  },
  {
    "name": "Slovakia (Slovensko)",
    "iso2": "SK",
    "dialCode": "+421",
    "flag": "ğŸ‡¸ğŸ‡°"
  },
  {
    "name": "Slovenia (Slovenija)",
    "iso2": "SI",
    "dialCode": "+386",
    "flag": "ğŸ‡¸ğŸ‡®"
  },
  {
    "name": "Solomon Islands",
    "iso2": "SB",
    "dialCode": "+677",
    "flag": "ğŸ‡¸ğŸ‡§"
  },
  {
    "name": "Somalia (Soomaaliya)",
    "iso2": "SO",
    "dialCode": "+252",
    "flag": "ğŸ‡¸ğŸ‡´"
  },
  {
    "name": "South Africa",
    "iso2": "ZA",
    "dialCode": "+27",
    "flag": "ğŸ‡¿ğŸ‡¦"
  },
  {
    "name": "South Georgia and the South Sandwich Islands",
    "iso2": "GS",
    "dialCode": "+500",
    "flag": "ğŸ‡¬ğŸ‡¸"
  },
  {
    "name": "South Korea (ëŒ€í•œë¯¼êµ­)",
    "iso2": "KR",
    "dialCode": "+82",
    "flag": "ğŸ‡°ğŸ‡·"
  },
  {
    "name": "South Sudan (â€«Ø¬Ù†ÙˆØ¨ Ø§Ù„Ø³ÙˆØ¯Ø§Ù†â€¬â€)",
    "iso2": "SS",
    "dialCode": "+211",
    "flag": "ğŸ‡¸ğŸ‡¸"
  },
  {
    "name": "Spain (EspaÃ±a)",
    "iso2": "ES",
    "dialCode": "+34",
    "flag": "ğŸ‡ªğŸ‡¸"
  },
  {
    "name": "Sri Lanka (à·à·Šâ€à¶»à·“ à¶½à¶‚à¶šà·à·€)",
    "iso2": "LK",
    "dialCode": "+94",
    "flag": "ğŸ‡±ğŸ‡°"
  },
  {
    "name": "Sudan (â€«Ø§Ù„Ø³ÙˆØ¯Ø§Ù†â€¬â€)",
    "iso2": "SD",
    "dialCode": "+249",
    "flag": "ğŸ‡¸ğŸ‡©"
  },
  {
    "name": "Suriname",
    "iso2": "SR",
    "dialCode": "+597",
    "flag": "ğŸ‡¸ğŸ‡·"
  },
  {
    "name": "Svalbard and Jan Mayen",
    "iso2": "SJ",
    "dialCode": "+47",
    "flag": "ğŸ‡¸ğŸ‡¯"
  },
  {
    "name": "Swaziland",
    "iso2": "SZ",
    "dialCode": "+268",
    "flag": "ğŸ‡¸ğŸ‡¿"
  },
  {
    "name": "Sweden (Sverige)",
    "iso2": "SE",
    "dialCode": "+46",
    "flag": "ğŸ‡¸ğŸ‡ª"
  },
  {
    "name": "Switzerland (Schweiz)",
    "iso2": "CH",
    "dialCode": "+41",
    "flag": "ğŸ‡¨ğŸ‡­"
  },
  {
    "name": "Syria (â€«Ø³ÙˆØ±ÙŠØ§â€¬â€)",
    "iso2": "SY",
    "dialCode": "+963",
    "flag": "ğŸ‡¸ğŸ‡¾"
  },
  {
    "name": "Taiwan (å°ç£)",
    "iso2": "TW",
    "dialCode": "+886",
    "flag": "ğŸ‡¹ğŸ‡¼"
  },
  {
    "name": "Tajikistan",
    "iso2": "TJ",
    "dialCode": "+992",
    "flag": "ğŸ‡¹ğŸ‡¯"
  },
  {
    "name": "Tanzania",
    "iso2": "TZ",
    "dialCode": "+255",
    "flag": "ğŸ‡¹ğŸ‡¿"
  },
  {
    "name": "Thailand (à¹„à¸—à¸¢)",
    "iso2": "TH",
    "dialCode": "+66",
    "flag": "ğŸ‡¹ğŸ‡­"
  },
  {
    "name": "Timor-Leste",
    "iso2": "TL",
    "dialCode": "+670",
    "flag": "ğŸ‡¹ğŸ‡±"
  },
  {
    "name": "Togo",
    "iso2": "TG",
    "dialCode": "+228",
    "flag": "ğŸ‡¹ğŸ‡¬"
  },
  {
    "name": "Tokelau",
    "iso2": "TK",
    "dialCode": "+690",
    "flag": "ğŸ‡¹ğŸ‡°"
  },
  {
    "name": "Tonga",
    "iso2": "TO",
    "dialCode": "+676",
    "flag": "ğŸ‡¹ğŸ‡´"
  },
  {
    "name": "Trinidad and Tobago",
    "iso2": "TT",
    "dialCode": "+1868",
    "flag": "ğŸ‡¹ğŸ‡¹"
  },
  {
    "name": "Tunisia (â€«ØªÙˆÙ†Ø³â€¬â€)",
    "iso2": "TN",
    "dialCode": "+216",
    "flag": "ğŸ‡¹ğŸ‡³"
  },
  {
    "name": "Turkey (TÃ¼rkiye)",
    "iso2": "TR",
    "dialCode": "+90",
    "flag": "ğŸ‡¹ğŸ‡·"
  },
  {
    "name": "Turkmenistan",
    "iso2": "TM",
    "dialCode": "+993",
    "flag": "ğŸ‡¹ğŸ‡²"
  },
  {
    "name": "Turks and Caicos Islands",
    "iso2": "TC",
    "dialCode": "+1649",
    "flag": "ğŸ‡¹ğŸ‡¨"
  },
  {
    "name": "Tuvalu",
    "iso2": "TV",
    "dialCode": "+688",
    "flag": "ğŸ‡¹ğŸ‡»"
  },
  {
    "name": "U.S. Virgin Islands",
    "iso2": "VI",
    "dialCode": "+1340",
    "flag": "ğŸ‡»ğŸ‡®"
  },
  {
    "name": "Uganda",
    "iso2": "UG",
    "dialCode": "+256",
    "flag": "ğŸ‡ºğŸ‡¬"
  },
  {
    "name": "Ukraine (Ğ£ĞºÑ€Ğ°Ñ—Ğ½Ğ°)",
    "iso2": "UA",
    "dialCode": "+380",
    "flag": "ğŸ‡ºğŸ‡¦"
  },
  {
    "name": "United Arab Emirates (â€«Ø§Ù„Ø¥Ù…Ø§Ø±Ø§Øª Ø§Ù„Ø¹Ø±Ø¨ÙŠØ© Ø§Ù„Ù…ØªØ­Ø¯Ø©â€¬â€)",
    "iso2": "AE",
    "dialCode": "+971",
    "flag": "ğŸ‡¦ğŸ‡ª"
  },
  {
    "name": "United Kingdom",
    "iso2": "GB",
    "dialCode": "+44",
    "flag": "ğŸ‡¬ğŸ‡§"
  },
  {
    "name": "United States",
    "iso2": "US",
    "dialCode": "+1",
    "flag": "ğŸ‡ºğŸ‡¸"
  },
  {
    "name": "United States Minor Outlying Islands",
    "iso2": "UM",
    "dialCode": "+1",
    "flag": "ğŸ‡ºğŸ‡²"
  },
  {
    "name": "Uruguay",
    "iso2": "UY",
    "dialCode": "+598",
    "flag": "ğŸ‡ºğŸ‡¾"
  },
  {
    "name": "Uzbekistan (OÊ»zbekiston)",
    "iso2": "UZ",
    "dialCode": "+998",
    "flag": "ğŸ‡ºğŸ‡¿"
  },
  {
    "name": "Vanuatu",
    "iso2": "VU",
    "dialCode": "+678",
    "flag": "ğŸ‡»ğŸ‡º"
  },
  {
    "name": "Vatican City (CittÃ  del Vaticano)",
    "iso2": "VA",
    "dialCode": "+39",
    "flag": "ğŸ‡»ğŸ‡¦"
  },
  {
    "name": "Venezuela",
    "iso2": "VE",
    "dialCode": "+58",
    "flag": "ğŸ‡»ğŸ‡ª"
  },
  {
    "name": "Vietnam (Viá»‡t Nam)",
    "iso2": "VN",
    "dialCode": "+84",
    "flag": "ğŸ‡»ğŸ‡³"
  },
  {
    "name": "Wallis and Futuna",
    "iso2": "WF",
    "dialCode": "+681",
    "flag": "ğŸ‡¼ğŸ‡«"
  },
  {
    "name": "Western Sahara",
    "iso2": "EH",
    "dialCode": "+212",
    "flag": "ğŸ‡ªğŸ‡­"
  },
  {
    "name": "Yemen (â€«Ø§Ù„ÙŠÙ…Ù†â€¬â€)",
    "iso2": "YE",
    "dialCode": "+967",
    "flag": "ğŸ‡¾ğŸ‡ª"
  },
  {
    "name": "Zambia",
    "iso2": "ZM",
    "dialCode": "+260",
    "flag": "ğŸ‡¿ğŸ‡²"
  },
  {
    "name": "Zimbabwe",
    "iso2": "ZW",
    "dialCode": "+263",
    "flag": "ğŸ‡¿ğŸ‡¼"
  }
]